NORAD_CAT_ID,OBJECT_NAME,OBJECT_TYPE,EPOCH,MEAN_MOTION,ECCENTRICITY,INCLINATION,RA_OF_ASC_NODE,ARG_OF_PERICENTER,MEAN_ANOMALY,BSTAR,MEAN_MOTION_DOT,MEAN_MOTION_DDOT,TLE_LINE0,TLE_LINE1,TLE_LINE2,SEMIMAJOR_AXIS,PERIOD,APOGEE,PERIGEE,DECAYED
52265.0,STARLINK-3740,PAYLOAD,2024-04-07 11:41:31,15.08842691,0.0001676,53.2209,16.9423,88.321,271.7974,6.4654e-05,7.41e-06,0.0,0 STARLINK-3740,1 52265U 22041E   24098.48717234  .00000741  00000-0  64654-4 0  9999,2 52265  53.2209  16.9423 0001676  88.3210 271.7974 15.08842691108505,6917.872,95.437,540.897,538.578,0.0
52265.0,STARLINK-3740,PAYLOAD,2024-04-07 18:03:04,15.08840357,0.0001652,53.2208,15.7535,89.2189,270.8993,9.4444e-05,1.215e-05,0.0,0 STARLINK-3740,1 52265U 22041E   24098.75213344  .00001215  00000-0  94444-4 0  9999,2 52265  53.2208  15.7535 0001652  89.2189 270.8993 15.08840357109761,6917.879,95.438,540.887,538.601,0.0
52265.0,STARLINK-3740,PAYLOAD,2024-04-07 22:49:13,15.0883943,0.000165,53.2209,14.8607,88.56,271.5581,9.7162e-05,1.259e-05,0.0,0 STARLINK-3740,1 52265U 22041E   24098.95085421  .00001259  00000-0  97162-4 0  9992,2 52265  53.2209  14.8607 0001650  88.5600 271.5581 15.08839430108579,6917.882,95.438,540.889,538.606,0.0
52265.0,STARLINK-3740,PAYLOAD,2024-04-08 11:32:18,15.08846416,0.000141,53.2193,12.4813,86.6879,273.4275,3.5217e-05,2.73e-06,0.0,0 STARLINK-3740,1 52265U 22041E   24099.48077016  .00000273  00000-0  35217-4 0  9990,2 52265  53.2193  12.4813 0001410  86.6879 273.4275 15.08846416108657,6917.861,95.437,540.701,538.75,0.0
52265.0,STARLINK-3740,PAYLOAD,2024-04-09 00:15:23,15.08842335,0.0001297,53.2176,10.1023,92.7932,267.3209,0.00015743,2.219e-05,0.0,0 STARLINK-3740,1 52265U 22041E   24100.01069032  .00002219  00000-0  15743-3 0  9994,2 52265  53.2176  10.1023 0001297  92.7932 267.3209 15.08842335108731,6917.873,95.437,540.635,538.841,0.0
52265.0,STARLINK-3740,PAYLOAD,2024-04-09 03:26:09,15.08849619,0.0001385,53.2185,9.5066,94.0301,266.085,0.00012295,1.67e-05,0.0,0 STARLINK-3740,1 52265U 22041E   24100.14316612  .00001670  00000-0  12295-3 0  9996,2 52265  53.2185   9.5066 0001385  94.0301 266.0850 15.08849619109970,6917.851,95.437,540.674,538.758,0.0
52265.0,STARLINK-3740,PAYLOAD,2024-04-09 11:23:05,15.08847179,0.0001245,53.2178,8.0213,102.5872,257.5259,9.4676e-05,1.219e-05,0.0,0 STARLINK-3740,1 52265U 22041E   24100.47436691  .00001219  00000-0  94676-4 0  9995,2 52265  53.2178   8.0213 0001245 102.5872 257.5259 15.08847179108801,6917.858,95.437,540.585,538.862,0.0
52265.0,STARLINK-3740,PAYLOAD,2024-04-10 03:16:58,15.08830861,0.0001486,53.2216,5.0479,99.6937,260.4223,-8.6742e-05,-1.668e-05,0.0,0 STARLINK-3740,1 52265U 22041E   24101.13678588 -.00001668  00000-0 -86742-4 0  9997,2 52265  53.2216   5.0479 0001486  99.6937 260.4223 15.08830861110122,6917.908,95.438,540.801,538.745,0.0
52265.0,STARLINK-3740,PAYLOAD,2024-04-10 22:21:36,15.08831728,0.0001351,53.2196,1.4822,85.8063,274.3083,2.044e-05,3.7e-07,0.0,0 STARLINK-3740,1 52265U 22041E   24101.93166836  .00000037  00000-0  20440-4 0  9993,2 52265  53.2196   1.4822 0001351  85.8063 274.3083 15.08831728109027,6917.906,95.438,540.705,538.836,0.0
52265.0,STARLINK-3740,PAYLOAD,2024-04-10 23:56:59,15.0883476,0.000124,53.2186,1.1833,90.9467,269.1667,5.4615e-05,5.81e-06,0.0,0 STARLINK-3740,1 52265U 22041E   24101.99790553  .00000581  00000-0  54615-4 0  9993,2 52265  53.2186   1.1833 0001240  90.9467 269.1667 15.08834760110253,6917.896,95.438,540.619,538.904,0.0
52265.0,STARLINK-3740,PAYLOAD,2024-04-11 22:12:23,15.08841568,0.000147,53.2177,357.0207,93.8968,266.2192,0.00031673,4.757e-05,0.0,0 STARLINK-3740,1 52265U 22041E   24102.92526670  .00004757  00000-0  31673-3 0  9991,2 52265  53.2177 357.0207 0001470  93.8968 266.2192 15.08841568109178,6917.876,95.437,540.758,538.724,0.0
52265.0,STARLINK-3740,PAYLOAD,2024-04-12 02:58:32,15.08847879,0.0001513,53.2174,356.1287,94.0997,266.0168,0.00047374,7.261e-05,0.0,0 STARLINK-3740,1 52265U 22041E   24103.12398483  .00007261  00000-0  47374-3 0  9991,2 52265  53.2174 356.1287 0001513  94.0997 266.0168 15.08847879110428,6917.856,95.437,540.768,538.675,0.0
52265.0,STARLINK-3740,PAYLOAD,2024-04-12 22:03:09,15.08853129,0.0001454,53.2173,352.5599,92.7439,267.372,0.00018086,2.593e-05,0.0,0 STARLINK-3740,1 52265U 22041E   24103.91885892  .00002593  00000-0  18086-3 0  9994,2 52265  53.2173 352.5599 0001454  92.7439 267.3720 15.08853129109323,6917.84,95.437,540.711,538.699,0.0
52265.0,STARLINK-3740,PAYLOAD,2024-04-13 02:49:18,15.08857641,0.0001458,53.2171,351.6674,90.7298,269.3861,0.00020821,3.029e-05,0.0,0 STARLINK-3740,1 52265U 22041E   24104.11757516  .00003029  00000-0  20821-3 0  9993,2 52265  53.2171 351.6674 0001458  90.7298 269.3861 15.08857641109354,6917.826,95.436,540.7,538.683,0.0
52265.0,STARLINK-3740,PAYLOAD,2024-04-13 20:18:33,15.08845161,0.0001467,53.2182,348.3952,85.2392,274.8768,-8.6184e-05,-1.66e-05,0.0,0 STARLINK-3740,1 52265U 22041E   24104.84621689 -.00001660  00000-0 -86184-4 0  9990,2 52265  53.2182 348.3952 0001467  85.2392 274.8768 15.08845161110681,6917.865,95.437,540.744,538.715,0.0
52265.0,STARLINK-3740,PAYLOAD,2024-04-13 21:53:56,15.08846934,0.0001364,53.2174,348.0977,89.074,271.0408,-7.1697e-05,-1.429e-05,0.0,0 STARLINK-3740,1 52265U 22041E   24104.91245661 -.00001429  00000-0 -71697-4 0  9996,2 52265  53.2174 348.0977 0001364  89.0740 271.0408 15.08846934109475,6917.859,95.437,540.668,538.781,0.0
52265.0,STARLINK-3740,PAYLOAD,2024-04-14 21:44:43,15.0884068,0.0001795,53.2201,343.6303,75.8075,284.3117,6.3622e-05,7.25e-06,0.0,0 STARLINK-3740,1 52265U 22041E   24105.90605879  .00000725  00000-0  63622-4 0  9992,2 52265  53.2201 343.6303 0001795  75.8075 284.3117 15.08840680109625,6917.878,95.438,540.985,538.502,0.0
52265.0,STARLINK-3740,PAYLOAD,2024-04-15 00:55:29,15.08846546,0.000171,53.2195,343.043,73.5582,286.5598,1.9101e-05,1.6e-07,0.0,0 STARLINK-3740,1 52265U 22041E   24106.03853651  .00000016  00000-0  19101-4 0  9996,2 52265  53.2195 343.0430 0001710  73.5582 286.5598 15.08846546110869,6917.86,95.437,540.908,538.542,0.0
52265.0,STARLINK-3740,PAYLOAD,2024-04-15 15:13:58,15.08839757,0.0001532,53.2193,340.3693,76.5091,283.6072,0.00012458,1.695e-05,0.0,0 STARLINK-3740,1 52265U 22041E   24106.63470104  .00001695  00000-0  12458-3 0  9991,2 52265  53.2193 340.3693 0001532  76.5091 283.6072 15.08839757109733,6917.881,95.438,540.806,538.686,0.0
52265.0,STARLINK-3740,PAYLOAD,2024-04-15 21:35:30,15.08841833,0.0001629,53.2187,339.1796,73.337,286.7801,5.1061e-05,5.25e-06,0.0,0 STARLINK-3740,1 52265U 22041E   24106.89965971  .00000525  00000-0  51061-4 0  9995,2 52265  53.2187 339.1796 0001629  73.3370 286.7801 15.08841833110990,6917.875,95.437,540.867,538.613,0.0
52265.0,STARLINK-3740,PAYLOAD,2024-04-16 08:43:12,15.0884718,0.0001375,53.218,337.0963,88.018,272.0969,0.00013237,1.82e-05,0.0,0 STARLINK-3740,1 52265U 22041E   24107.36333458  .00001820  00000-0  13237-3 0  9998,2 52265  53.2180 337.0963 0001375  88.0180 272.0969 15.08847180109842,6917.858,95.437,540.675,538.772,0.0
52265.0,STARLINK-3740,PAYLOAD,2024-04-16 21:26:16,15.08856621,0.0001379,53.217,334.7184,83.6928,276.4221,0.00022846,3.351e-05,0.0,0 STARLINK-3740,1 52265U 22041E   24107.89324962  .00003351  00000-0  22846-3 0  9993,2 52265  53.2170 334.7184 0001379  83.6928 276.4221 15.08856621109923,6917.83,95.437,540.649,538.741,0.0
52265.0,STARLINK-3740,PAYLOAD,2024-04-17 21:17:04,15.08835553,0.0001406,53.216,330.2569,80.8377,279.2774,1.7849e-05,-4e-08,0.0,0 STARLINK-3740,1 52265U 22041E   24108.88686291 -.00000004  00000-0  17849-4 0  9990,2 52265  53.2160 330.2569 0001406  80.8377 279.2774 15.08835553111296,6917.894,95.438,540.732,538.786,0.0
52265.0,STARLINK-3740,PAYLOAD,2024-04-18 21:07:51,15.08845881,0.0001564,53.217,325.7961,89.3532,270.7639,0.00024049,3.542e-05,0.0,0 STARLINK-3740,1 52265U 22041E   24109.88046216  .00003542  00000-0  24049-3 0  9996,2 52265  53.2170 325.7961 0001564  89.3532 270.7639 15.08845881110227,6917.862,95.437,540.809,538.645,0.0
52265.0,STARLINK-3740,PAYLOAD,2024-04-19 14:37:06,15.08843623,0.0001838,53.2182,322.5261,96.1584,263.9617,0.00031896,4.792e-05,0.0,0 STARLINK-3740,1 52265U 22041E   24110.60910497  .00004792  00000-0  31896-3 0  9995,2 52265  53.2182 322.5261 0001838  96.1584 263.9617 15.08843623110339,6917.869,95.437,541.006,538.463,0.0
52265.0,STARLINK-3740,PAYLOAD,2024-04-19 19:23:15,15.08850725,0.0001784,53.2184,321.6344,93.0153,267.1044,0.00038782,5.891e-05,0.0,0 STARLINK-3740,1 52265U 22041E   24110.80782175  .00005891  00000-0  38782-3 0  9999,2 52265  53.2184 321.6344 0001784  93.0153 267.1044 15.08850725110365,6917.848,95.437,540.947,538.478,0.0
52265.0,STARLINK-3740,PAYLOAD,2024-04-20 12:52:30,15.08847206,0.0001781,53.2192,318.3729,96.7368,263.3827,0.00015379,2.161e-05,0.0,0 STARLINK-3740,1 52265U 22041E   24111.53646111  .00002161  00000-0  15379-3 0  9993,2 52265  53.2192 318.3729 0001781  96.7368 263.3827 15.08847206111693,6917.858,95.437,540.955,538.491,0.0
52265.0,STARLINK-3740,PAYLOAD,2024-04-20 14:27:53,15.0883641,0.0001108,53.2181,318.0658,94.2187,265.8932,-3.0754e-05,-7.77e-06,0.0,0 STARLINK-3740,1 52265U 22041E   24111.60270530 -.00000777  00000-0 -30754-4 0  9997,2 52265  53.2181 318.0658 0001108  94.2187 265.8932 15.08836410110489,6917.891,95.438,540.523,538.99,0.0
52265.0,STARLINK-3740,PAYLOAD,2024-04-20 19:14:03,15.08839791,0.0001547,53.2175,317.172,101.6389,258.4776,1.9774e-05,2.7e-07,0.0,0 STARLINK-3740,1 52265U 22041E   24111.80142424  .00000027  00000-0  19774-4 0  9994,2 52265  53.2175 317.1720 0001547 101.6389 258.4776 15.08839791111734,6917.881,95.438,540.816,538.676,0.0
52265.0,STARLINK-3740,PAYLOAD,2024-04-21 14:18:40,15.08834393,0.0001543,53.2169,313.6011,108.188,251.9281,-6.8751e-05,-1.382e-05,0.0,0 STARLINK-3740,1 52265U 22041E   24112.59630764 -.00001382  00000-0 -68751-4 0  9996,2 52265  53.2169 313.6011 0001543 108.1880 251.9281 15.08834393110635,6917.898,95.438,540.83,538.695,0.0
